ALSAT 1                 
1 27559U 02054A   13022.56543134  .00000277  00000-0  53519-4 0  7023
2 27559  97.7744 228.3249 0024574 112.5588 281.5679 14.70175729542912
NIGERIASAT 1            
1 27941U 03042C   13023.18159444  .00000344  00000-0  52600-4 0  5193
2 27941  97.8008 231.6905 0053254  54.0854 306.5253 14.78834687498863
UK-DMC                  
1 27942U 03042D   13022.20304610  .00000420  00000-0  65620-4 0  7893
2 27942  97.7877 233.1092 0063992 255.0250 224.3749 14.76592504498914
BILSAT 1                
1 27943U 03042E   13023.14079837  .00000138  00000-0  35193-4 0  3511
2 27943  97.7996 216.1724 0010335 297.2880  62.7253 14.63345415497949
BEIJING 1               
1 28890U 05043A   13023.17658691  .00000083  00000-0  26130-4 0  2340
2 28890  97.8718 243.6029 0015691 170.2771 189.8734 14.60432761385956
HJ-1A                   
1 33320U 08041A   13023.11027854  .00000664  00000-0  10639-3 0  8459
2 33320  97.8396  90.9769 0027819 154.6212 205.6377 14.74609496235890
HJ-1B                   
1 33321U 08041B   13023.07897765  .00000777  00000-0  12277-3 0  9020
2 33321  97.8420  91.2476 0037190 171.8668 188.3145 14.74603723235872
YAOGAN 4                
1 33446U 08061A   13023.20697238  .00000442  00000-0  73367-4 0  6033
2 33446  97.7609  83.7704 0018614 109.3132 251.0116 14.74594666223171
YAOGAN 5                
1 33456U 08064A   13023.22853796  .00011931  00000-0  28468-3 0  6027
2 33456  97.2322  98.0245 0008822  33.4656  51.6765 15.41653554229308
DEIMOS-1                
1 35681U 09041A   13023.19242708  .00000224  00000-0  45517-4 0  8699
2 35681  98.0173 284.5491 0001752  92.2720 267.8665 14.69880465187055
UK-DMC 2                
1 35683U 09041C   13023.02860610  .00000237  00000-0  47717-4 0  8903
2 35683  98.0174 283.4707 0001206 106.1968 253.9375 14.69903667186951
RISAT 1                 
1 38248U 12017A   13023.20075508  .00000849  00000-0  57802-4 0  8516
2 38248  97.5943  31.5137 0001830 111.4722  18.8510 15.08944234 41057
